NORAD_CAT_ID,OBJECT_NAME,OBJECT_TYPE,EPOCH,MEAN_MOTION,ECCENTRICITY,INCLINATION,RA_OF_ASC_NODE,ARG_OF_PERICENTER,MEAN_ANOMALY,BSTAR,MEAN_MOTION_DOT,MEAN_MOTION_DDOT,TLE_LINE0,TLE_LINE1,TLE_LINE2,SEMIMAJOR_AXIS,PERIOD,APOGEE,PERIGEE,DECAYED
51803.0,STARLINK-3544,PAYLOAD,2024-07-01 20:11:18,15.08838482,0.0001446,53.2174,233.7769,100.9922,259.1233,0.00012778,1.746e-05,0.0,0 STARLINK-3544,1 51803U 22017AM  24183.84118089  .00001746  00000-0  12778-3 0  9992,2 51803  53.2174 233.7769 0001446 100.9922 259.1233 15.08838482130945,6917.885,95.438,540.75,538.75,0.0
51803.0,STARLINK-3544,PAYLOAD,2024-07-02 10:29:46,15.08832302,0.0001308,53.217,231.1007,102.4156,257.6983,9.4221e-05,1.212e-05,0.0,0 STARLINK-3544,1 51803U 22017AM  24184.43734839  .00001212  00000-0  94221-4 0  9997,2 51803  53.2170 231.1007 0001308 102.4156 257.6983 15.08832302131032,6917.904,95.438,540.674,538.864,0.0
51803.0,STARLINK-3544,PAYLOAD,2024-07-03 11:55:57,15.08835312,0.0001275,53.216,226.3416,95.7551,264.3586,6.5503e-05,7.55e-06,0.0,0 STARLINK-3544,1 51803U 22017AM  24185.49718975  .00000755  00000-0  65503-4 0  9999,2 51803  53.2160 226.3416 0001275  95.7551 264.3586 15.08835312131192,6917.895,95.438,540.642,538.878,0.0
51803.0,STARLINK-3544,PAYLOAD,2024-07-03 19:52:52,15.0884135,0.0001181,53.2154,224.8536,91.8935,268.2192,7.0755e-05,8.38e-06,0.0,0 STARLINK-3544,1 51803U 22017AM  24185.82838586  .00000838  00000-0  70755-4 0  9994,2 51803  53.2154 224.8536 0001181  91.8935 268.2192 15.08841350131241,6917.876,95.437,540.558,538.924,0.0
51803.0,STARLINK-3544,PAYLOAD,2024-07-04 11:46:43,15.08843328,0.0001254,53.2157,221.8801,88.9161,271.1975,9.3264e-05,1.197e-05,0.0,0 STARLINK-3544,1 51803U 22017AM  24186.49078431  .00001197  00000-0  93264-4 0  9992,2 51803  53.2157 221.8801 0001254  88.9161 271.1975 15.08843328131345,6917.87,95.437,540.603,538.868,0.0
51803.0,STARLINK-3544,PAYLOAD,2024-07-04 19:43:39,15.08845111,0.0001219,53.2157,220.3926,89.4358,270.6774,0.00012099,1.638e-05,0.0,0 STARLINK-3544,1 51803U 22017AM  24186.82198178  .00001638  00000-0  12099-3 0  9996,2 51803  53.2157 220.3926 0001219  89.4358 270.6774 15.08845111131390,6917.865,95.437,540.573,538.886,0.0
51803.0,STARLINK-3544,PAYLOAD,2024-07-05 08:26:44,15.08842046,0.0001287,53.2161,218.0136,90.5107,269.6032,6.8281e-05,7.99e-06,0.0,0 STARLINK-3544,1 51803U 22017AM  24187.35190461  .00000799  00000-0  68281-4 0  9994,2 51803  53.2161 218.0136 0001287  90.5107 269.6032 15.08842046131470,6917.874,95.437,540.629,538.849,0.0
51803.0,STARLINK-3544,PAYLOAD,2024-07-05 19:34:26,15.08846624,0.0001296,53.216,215.932,90.0891,270.0249,8.0259e-05,9.9e-06,0.0,0 STARLINK-3544,1 51803U 22017AM  24187.81558034  .00000990  00000-0  80259-4 0  9991,2 51803  53.2160 215.9320 0001296  90.0891 270.0249 15.08846624131545,6917.86,95.437,540.622,538.829,0.0
51803.0,STARLINK-3544,PAYLOAD,2024-07-06 05:06:45,15.08838178,0.0001433,53.2176,214.1468,95.7032,264.4124,1.1199e-05,-1.1e-06,0.0,0 STARLINK-3544,1 51803U 22017AM  24188.21302715 -.00000110  00000-0  11199-4 0  9991,2 51803  53.2176 214.1468 0001433  95.7032 264.4124 15.08838178131609,6917.886,95.438,540.742,538.76,0.0
51803.0,STARLINK-3544,PAYLOAD,2024-07-06 11:28:18,15.08837536,0.0001397,53.2169,212.958,95.9151,264.2,-2.6599e-05,-7.11e-06,0.0,0 STARLINK-3544,1 51803U 22017AM  24188.47798801 -.00000711  00000-0 -26599-4 0  9992,2 51803  53.2169 212.9580 0001397  95.9151 264.2000 15.08837536131647,6917.888,95.438,540.719,538.786,0.0
51803.0,STARLINK-3544,PAYLOAD,2024-07-07 08:08:18,15.08837055,0.0001415,53.2171,209.0931,92.0214,268.094,-1.775e-05,-5.7e-06,0.0,0 STARLINK-3544,1 51803U 22017AM  24189.33910845 -.00000570  00000-0 -17750-4 0  9994,2 51803  53.2171 209.0931 0001415  92.0214 268.0940 15.08837055131771,6917.889,95.438,540.733,538.776,0.0
51803.0,STARLINK-3544,PAYLOAD,2024-07-08 07:59:05,15.08835355,0.0001269,53.2159,204.6322,88.805,271.3087,7.4807e-05,9.03e-06,0.0,0 STARLINK-3544,1 51803U 22017AM  24190.33270783  .00000903  00000-0  74807-4 0  9990,2 51803  53.2159 204.6322 0001269  88.8050 271.3087 15.08835355131927,6917.895,95.438,540.637,538.882,0.0
51803.0,STARLINK-3544,PAYLOAD,2024-07-08 17:31:24,15.08839637,0.0001266,53.2159,202.848,87.9893,272.1245,7.6945e-05,9.37e-06,0.0,0 STARLINK-3544,1 51803U 22017AM  24190.73014577  .00000937  00000-0  76945-4 0  9993,2 51803  53.2159 202.8480 0001266  87.9893 272.1245 15.08839637131982,6917.881,95.438,540.622,538.871,0.0
51803.0,STARLINK-3544,PAYLOAD,2024-07-09 04:39:07,15.08833255,0.0001383,53.2171,200.7678,91.4174,268.6977,2.4721e-05,1.05e-06,0.0,0 STARLINK-3544,1 51803U 22017AM  24191.19383293  .00000105  00000-0  24721-4 0  9990,2 51803  53.2171 200.7678 0001383  91.4174 268.6977 15.08833255132055,6917.901,95.438,540.723,538.809,0.0
51803.0,STARLINK-3544,PAYLOAD,2024-07-09 07:49:53,15.08834061,0.0001387,53.217,200.1731,91.4319,268.6832,3.024e-05,1.93e-06,0.0,0 STARLINK-3544,1 51803U 22017AM  24191.32631267  .00000193  00000-0  30240-4 0  9992,2 51803  53.2170 200.1731 0001387  91.4319 268.6832 15.08834061132071,6917.899,95.438,540.723,538.804,0.0
51803.0,STARLINK-3544,PAYLOAD,2024-07-10 09:16:03,15.08833601,0.0001384,53.2167,195.4159,94.7876,265.3274,-5.2987e-06,-3.72e-06,0.0,0 STARLINK-3544,1 51803U 22017AM  24192.38615737 -.00000372  00000-0 -52987-5 0  9997,2 51803  53.2167 195.4159 0001384  94.7876 265.3274 15.08833601132239,6917.9,95.438,540.722,538.808,0.0
51803.0,STARLINK-3544,PAYLOAD,2024-07-11 09:06:50,15.08840188,0.0001312,53.2159,190.9542,92.6059,267.5083,7.8935e-05,9.69e-06,0.0,0 STARLINK-3544,1 51803U 22017AM  24193.37975243  .00000969  00000-0  78935-4 0  9998,2 51803  53.2159 190.9542 0001312  92.6059 267.5083 15.08840188132383,6917.88,95.438,540.652,538.837,0.0
51803.0,STARLINK-3544,PAYLOAD,2024-07-12 08:57:37,15.08843117,0.0001343,53.216,186.4927,89.9507,270.1639,0.00011074,1.475e-05,0.0,0 STARLINK-3544,1 51803U 22017AM  24194.37334990  .00001475  00000-0  11074-3 0  9990,2 51803  53.2160 186.4927 0001343  89.9507 270.1639 15.08843117132532,6917.871,95.437,540.665,538.807,0.0
51803.0,STARLINK-3544,PAYLOAD,2024-07-12 16:54:32,15.08845062,0.0001348,53.2161,185.006,89.6408,270.4739,0.00010838,1.438e-05,0.0,0 STARLINK-3544,1 51803U 22017AM  24194.70454846  .00001438  00000-0  10838-3 0  9996,2 51803  53.2161 185.0060 0001348  89.6408 270.4739 15.08845062132588,6917.865,95.437,540.662,538.797,0.0
51803.0,STARLINK-3544,PAYLOAD,2024-07-13 05:37:38,15.08842154,0.0001409,53.2165,182.6266,95.9051,264.2101,2.6373e-05,1.32e-06,0.0,0 STARLINK-3544,1 51803U 22017AM  24195.23447193  .00000132  00000-0  26373-4 0  9994,2 51803  53.2165 182.6266 0001409  95.9051 264.2101 15.08842154132667,6917.874,95.437,540.714,538.764,0.0
51803.0,STARLINK-3544,PAYLOAD,2024-07-13 23:06:52,15.08840561,0.0001542,53.2172,179.3553,100.5713,259.5453,-1.612e-06,-3.14e-06,0.0,0 STARLINK-3544,1 51803U 22017AM  24195.96311316 -.00000314  00000-0 -16120-5 0  9995,2 51803  53.2172 179.3553 0001542 100.5713 259.5453 15.08840561132772,6917.879,95.438,540.81,538.677,0.0
51803.0,STARLINK-3544,PAYLOAD,2024-07-14 08:39:11,15.08840007,0.0001469,53.2165,177.5722,93.5836,266.5324,-1.1946e-06,-3.07e-06,0.0,0 STARLINK-3544,1 51803U 22017AM  24196.36055334 -.00000307  00000-0 -11946-5 0  9998,2 51803  53.2165 177.5722 0001469  93.5836 266.5324 15.08840007132834,6917.88,95.438,540.762,538.729,0.0
51803.0,STARLINK-3544,PAYLOAD,2024-07-15 05:19:13,15.08826946,0.0001403,53.2168,173.7063,94.7347,265.3805,9.5789e-05,1.236e-05,0.0,0 STARLINK-3544,1 51803U 22017AM  24197.22168085  .00001236  00000-0  95789-4 0  9998,2 51803  53.2168 173.7063 0001403  94.7347 265.3805 15.08826946132962,6917.92,95.438,540.756,538.815,0.0
51803.0,STARLINK-3544,PAYLOAD,2024-07-15 08:29:59,15.08835347,0.0001411,53.2168,173.1116,92.5098,267.6056,-1.7071e-05,-5.6e-06,0.0,0 STARLINK-3544,1 51803U 22017AM  24197.35415855 -.00000560  00000-0 -17071-4 0  9991,2 51803  53.2168 173.1116 0001411  92.5098 267.6056 15.08835347132983,6917.895,95.438,540.736,538.783,0.0
51803.0,STARLINK-3544,PAYLOAD,2024-07-15 22:48:27,15.08833993,0.0001389,53.2169,170.4349,91.1031,269.012,6.9058e-05,8.11e-06,0.0,0 STARLINK-3544,1 51803U 22017AM  24197.95031779  .00000811  00000-0  69058-4 0  9995,2 51803  53.2169 170.4349 0001389  91.1031 269.0120 15.08833993133072,6917.899,95.438,540.725,538.803,0.0
51803.0,STARLINK-3544,PAYLOAD,2024-07-16 05:09:59,15.08838801,0.0001324,53.2166,169.2457,89.8345,270.2799,0.00011193,1.494e-05,0.0,0 STARLINK-3544,1 51803U 22017AM  24198.21527444  .00001494  00000-0  11193-3 0  9998,2 51803  53.2166 169.2457 0001324  89.8345 270.2799 15.08838801133110,6917.884,95.438,540.665,538.833,0.0
51803.0,STARLINK-3544,PAYLOAD,2024-07-17 14:33:05,15.08846571,0.0001262,53.217,163.0029,92.1684,267.9453,0.00011265,1.506e-05,0.0,0 STARLINK-3544,1 51803U 22017AM  24199.60630954  .00001506  00000-0  11265-3 0  9997,2 51803  53.2170 163.0029 0001262  92.1684 267.9453 15.08846571133322,6917.86,95.437,540.598,538.852,0.0
51803.0,STARLINK-3544,PAYLOAD,2024-07-18 04:51:34,15.08834666,0.0001341,53.2175,160.3253,90.5257,269.5888,-2.1321e-05,-6.27e-06,0.0,0 STARLINK-3544,1 51803U 22017AM  24200.20248377 -.00000627  00000-0 -21321-4 0  9990,2 51803  53.2175 160.3253 0001341  90.5257 269.5888 15.08834666133414,6917.897,95.438,540.689,538.834,0.0
51803.0,STARLINK-3544,PAYLOAD,2024-07-18 06:26:57,15.08837226,0.0001424,53.218,160.0293,97.661,262.4543,7.5577e-06,-1.68e-06,0.0,0 STARLINK-3544,1 51803U 22017AM  24200.26872179 -.00000168  00000-0  75577-5 0  9991,2 51803  53.2180 160.0293 0001424  97.6610 262.4543 15.08837226133420,6917.889,95.438,540.739,538.769,0.0
51803.0,STARLINK-3544,PAYLOAD,2024-07-19 04:42:21,15.08842895,0.0001325,53.2177,155.8658,91.1796,268.9348,5.1304e-05,5.29e-06,0.0,0 STARLINK-3544,1 51803U 22017AM  24201.19607916  .00000529  00000-0  51304-4 0  9990,2 51803  53.2177 155.8658 0001325  91.1796 268.9348 15.08842895133564,6917.872,95.437,540.653,538.82,0.0
